[{"OBJECT_NAME":"FENGYUN 1C DEB","OBJECT_ID":"1999-025EB","EPOCH":"2026-03-02T10:59:05.072640","MEAN_MOTION":14.93325075,"ECCENTRICITY":0.00869016,"INCLINATION":99.0824,"RA_OF_ASC_NODE":60.8464,"ARG_OF_PERICENTER":3.1749,"MEAN_ANOMALY":356.9999,"EPHEMERIS_TYPE":0,"CLASSIFICATION_TYPE":"U","NORAD_CAT_ID":29833,"ELEMENT_SET_NO":999,"REV_AT_EPOCH":1760,"BSTAR":0.0018116173,"MEAN_MOTION_DOT":0.00020416,"MEAN_MOTION_DDOT":0},{"OBJECT_NAME":"FENGYUN 1C DEB","OBJECT_ID":"1999-025ED","EPOCH":"2026-03-02T20:29:52.380672","MEAN_MOTION":14.43441637,"ECCENTRICITY":0.0167589,"INCLINATION":99.0331,"RA_OF_ASC_NODE":200.0804,"ARG_OF_PERICENTER":159.0144,"MEAN_ANOMALY":1.2323,"EPHEMERIS_TYPE":0,"CLASSIFICATION_TYPE":"U","NORAD_CAT_ID":29835,"ELEMENT_SET_NO":999,"REV_AT_EPOCH":648,"BSTAR":0.00017959,"MEAN_MOTION_DOT":6.63e-6,"MEAN_MOTION_DDOT":0},{"OBJECT_NAME":"FENGYUN 1C DEB","OBJECT_ID":"1999-025EE","EPOCH":"2026-03-02T05:56:37.552704","MEAN_MOTION":14.5454175,"ECCENTRICITY":0.01526822,"INCLINATION":98.1822,"RA_OF_ASC_NODE":160.5108,"ARG_OF_PERICENTER":317.1326,"MEAN_ANOMALY":68.9018,"EPHEMERIS_TYPE":0,"CLASSIFICATION_TYPE":"U","NORAD_CAT_ID":29836,"ELEMENT_SET_NO":999,"REV_AT_EPOCH":64711,"BSTAR":0.00039668292,"MEAN_MOTION_DOT":1.923e-5,"MEAN_MOTION_DDOT":0},{"OBJECT_NAME":"FENGYUN 1C DEB","OBJECT_ID":"1999-025EK","EPOCH":"2026-03-02T19:30:48.568032","MEAN_MOTION":14.46757859,"ECCENTRICITY":0.0201168,"INCLINATION":98.8298,"RA_OF_ASC_NODE":17.3198,"ARG_OF_PERICENTER":92.9986,"MEAN_ANOMALY":328.8424,"EPHEMERIS_TYPE":0,"CLASSIFICATION_TYPE":"U","NORAD_CAT_ID":29841,"ELEMENT_SET_NO":999,"REV_AT_EPOCH":478,"BSTAR":0.00039324,"MEAN_MOTION_DOT":1.776e-5,"MEAN_MOTION_DDOT":0},{"OBJECT_NAME":"FENGYUN 1C DEB","OBJECT_ID":"1999-025EL","EPOCH":"2026-03-02T17:33:09.662112","MEAN_MOTION":14.61255423,"ECCENTRICITY":0.0105514,"INCLINATION":98.5613,"RA_OF_ASC_NODE":157.0193,"ARG_OF_PERICENTER":277.7993,"MEAN_ANOMALY":236.0778,"EPHEMERIS_TYPE":0,"CLASSIFICATION_TYPE":"U","NORAD_CAT_ID":29842,"ELEMENT_SET_NO":999,"REV_AT_EPOCH":515,"BSTAR":0.0011584,"MEAN_MOTION_DOT":6.13e-5,"MEAN_MOTION_DDOT":0},{"OBJECT_NAME":"FENGYUN 1C DEB","OBJECT_ID":"1999-025EM","EPOCH":"2026-03-02T13:02:19.239936","MEAN_MOTION":14.28740727,"ECCENTRICITY":0.01927108,"INCLINATION":99.0362,"RA_OF_ASC_NODE":267.7899,"ARG_OF_PERICENTER":59.6871,"MEAN_ANOMALY":355.5897,"EPHEMERIS_TYPE":0,"CLASSIFICATION_TYPE":"U","NORAD_CAT_ID":29843,"ELEMENT_SET_NO":999,"REV_AT_EPOCH":99421,"BSTAR":0.0003448429,"MEAN_MOTION_DOT":1.009e-5,"MEAN_MOTION_DDOT":0},{"OBJECT_NAME":"FENGYUN 1C DEB","OBJECT_ID":"1999-025EN","EPOCH":"2026-03-02T16:19:00.914880","MEAN_MOTION":14.32293424,"ECCENTRICITY":0.0166743,"INCLINATION":98.9339,"RA_OF_ASC_NODE":330.4509,"ARG_OF_PERICENTER":294.2687,"MEAN_ANOMALY":64.1155,"EPHEMERIS_TYPE":0,"CLASSIFICATION_TYPE":"U","NORAD_CAT_ID":29844,"ELEMENT_SET_NO":999,"REV_AT_EPOCH":99485,"BSTAR":0.00065732,"MEAN_MOTION_DOT":2.016e-5,"MEAN_MOTION_DDOT":0},{"OBJECT_NAME":"FENGYUN 1C DEB","OBJECT_ID":"1999-025EP","EPOCH":"2026-03-02T11:30:36.415296","MEAN_MOTION":14.26728402,"ECCENTRICITY":0.00756775,"INCLINATION":98.5259,"RA_OF_ASC_NODE":64.7366,"ARG_OF_PERICENTER":258.0683,"MEAN_ANOMALY":256.4514,"EPHEMERIS_TYPE":0,"CLASSIFICATION_TYPE":"U","NORAD_CAT_ID":29845,"ELEMENT_SET_NO":999,"REV_AT_EPOCH":99246,"BSTAR":0.00038805635,"MEAN_MOTION_DOT":9.25e-6,"MEAN_MOTION_DDOT":0},{"OBJECT_NAME":"FENGYUN 1C DEB","OBJECT_ID":"1999-025EQ","EPOCH":"2026-03-02T16:14:41.321760","MEAN_MOTION":14.19149305,"ECCENTRICITY":0.0085783,"INCLINATION":98.6425,"RA_OF_ASC_NODE":106.5911,"ARG_OF_PERICENTER":73.9096,"MEAN_ANOMALY":51.8288,"EPHEMERIS_TYPE":0,"CLASSIFICATION_TYPE":"U","NORAD_CAT_ID":29846,"ELEMENT_SET_NO":999,"REV_AT_EPOCH":98993,"BSTAR":0.00015085,"MEAN_MOTION_DOT":2.85e-6,"MEAN_MOTION_DDOT":0},{"OBJECT_NAME":"FENGYUN 1C DEB","OBJECT_ID":"1999-025ER","EPOCH":"2026-03-01T23:03:20.707776","MEAN_MOTION":14.03065487,"ECCENTRICITY":0.008462,"INCLINATION":98.9085,"RA_OF_ASC_NODE":60.166,"ARG_OF_PERICENTER":176.9842,"MEAN_ANOMALY":238.2872,"EPHEMERIS_TYPE":0,"CLASSIFICATION_TYPE":"U","NORAD_CAT_ID":29847,"ELEMENT_SET_NO":999,"REV_AT_EPOCH":97846,"BSTAR":2.0024e-5,"MEAN_MOTION_DOT":-1.1e-7,"MEAN_MOTION_DDOT":0},{"OBJECT_NAME":"FENGYUN 1C DEB","OBJECT_ID":"1999-025ES","EPOCH":"2026-03-02T15:06:54.209376","MEAN_MOTION":14.21041443,"ECCENTRICITY":0.0117232,"INCLINATION":98.2461,"RA_OF_ASC_NODE":287.9582,"ARG_OF_PERICENTER":61.0127,"MEAN_ANOMALY":0.3648,"EPHEMERIS_TYPE":0,"CLASSIFICATION_TYPE":"U","NORAD_CAT_ID":29848,"ELEMENT_SET_NO":999,"REV_AT_EPOCH":98252,"BSTAR":0.0011505,"MEAN_MOTION_DOT":2.637e-5,"MEAN_MOTION_DDOT":0},{"OBJECT_NAME":"FENGYUN 1C DEB","OBJECT_ID":"1999-025ET","EPOCH":"2026-03-02T18:50:39.357600","MEAN_MOTION":14.05198733,"ECCENTRICITY":0.0082807,"INCLINATION":99.0025,"RA_OF_ASC_NODE":150.6037,"ARG_OF_PERICENTER":180.3142,"MEAN_ANOMALY":306.4219,"EPHEMERIS_TYPE":0,"CLASSIFICATION_TYPE":"U","NORAD_CAT_ID":29849,"ELEMENT_SET_NO":999,"REV_AT_EPOCH":97494,"BSTAR":0.0011649,"MEAN_MOTION_DOT":1.897e-5,"MEAN_MOTION_DDOT":0},{"OBJECT_NAME":"FENGYUN 1C DEB","OBJECT_ID":"1999-025EU","EPOCH":"2026-03-02T17:12:08.946144","MEAN_MOTION":14.00147964,"ECCENTRICITY":0.0106973,"INCLINATION":98.1234,"RA_OF_ASC_NODE":344.4618,"ARG_OF_PERICENTER":61.7563,"MEAN_ANOMALY":2.9507,"EPHEMERIS_TYPE":0,"CLASSIFICATION_TYPE":"U","NORAD_CAT_ID":29850,"ELEMENT_SET_NO":999,"REV_AT_EPOCH":97139,"BSTAR":0.0017517,"MEAN_MOTION_DOT":2.679e-5,"MEAN_MOTION_DDOT":0},{"OBJECT_NAME":"FENGYUN 1C DEB","OBJECT_ID":"1999-025EV","EPOCH":"2026-03-02T17:47:37.433472","MEAN_MOTION":13.836717,"ECCENTRICITY":0.0142359,"INCLINATION":99.5715,"RA_OF_ASC_NODE":109.1443,"ARG_OF_PERICENTER":16.9201,"MEAN_ANOMALY":102.187,"EPHEMERIS_TYPE":0,"CLASSIFICATION_TYPE":"U","NORAD_CAT_ID":29851,"ELEMENT_SET_NO":999,"REV_AT_EPOCH":96473,"BSTAR":0.00034696,"MEAN_MOTION_DOT":3.68e-6,"MEAN_MOTION_DDOT":0},{"OBJECT_NAME":"FENGYUN 1C DEB","OBJECT_ID":"1999-025EW","EPOCH":"2026-03-02T13:34:43.867200","MEAN_MOTION":14.07693645,"ECCENTRICITY":0.0132816,"INCLINATION":99.3691,"RA_OF_ASC_NODE":79.2883,"ARG_OF_PERICENTER":288.9361,"MEAN_ANOMALY":198.34,"EPHEMERIS_TYPE":0,"CLASSIFICATION_TYPE":"U","NORAD_CAT_ID":29852,"ELEMENT_SET_NO":999,"REV_AT_EPOCH":97107,"BSTAR":0.0021144,"MEAN_MOTION_DOT":3.828e-5,"MEAN_MOTION_DDOT":0},{"OBJECT_NAME":"FENGYUN 1C DEB","OBJECT_ID":"1999-025EX","EPOCH":"2026-03-02T06:33:25.223040","MEAN_MOTION":13.9409875,"ECCENTRICITY":0.01576239,"INCLINATION":98.4582,"RA_OF_ASC_NODE":181.2129,"ARG_OF_PERICENTER":2.13,"MEAN_ANOMALY":358.05,"EPHEMERIS_TYPE":0,"CLASSIFICATION_TYPE":"U","NORAD_CAT_ID":29853,"ELEMENT_SET_NO":999,"REV_AT_EPOCH":96777,"BSTAR":0.00092993017,"MEAN_MOTION_DOT":1.326e-5,"MEAN_MOTION_DDOT":0}]
