FENGYUN 1C DEB          
1 29833U 99025EB  26061.45769760  .00020416  00000+0  18116-2 0  9990
2 29833  99.0824  60.8464 0086901   3.1749 356.9999 14.93325075 17608
FENGYUN 1C DEB          
1 29835U 99025ED  26061.85407848  .00000663  00000+0  17959-3 0  9999
2 29835  99.0331 200.0804 0167589 159.0144   1.2323 14.43441637  6484
FENGYUN 1C DEB          
1 29836U 99025EE  26061.24765686  .00001923  00000+0  39668-3 0  9991
2 29836  98.1822 160.5108 0152682 317.1326  68.9018 14.54541750647115
FENGYUN 1C DEB          
1 29841U 99025EK  26061.81306213  .00001776  00000+0  39324-3 0  9992
2 29841  98.8298  17.3198 0201168  92.9986 328.8424 14.46757859  4786
FENGYUN 1C DEB          
1 29842U 99025EL  26061.73136183  .00006130  00000+0  11584-2 0  9997
2 29842  98.5613 157.0193 0105514 277.7993 236.0778 14.61255423  5152
FENGYUN 1C DEB          
1 29843U 99025EM  26061.54327824  .00001009  00000+0  34484-3 0  9996
2 29843  99.0362 267.7899 0192710  59.6871 355.5897 14.28740727994210
FENGYUN 1C DEB          
1 29844U 99025EN  26061.67987170  .00002016  00000+0  65732-3 0  9996
2 29844  98.9339 330.4509 0166743 294.2687  64.1155 14.32293424994850
FENGYUN 1C DEB          
1 29845U 99025EP  26061.47958814  .00000925  00000+0  38806-3 0  9997
2 29845  98.5259  64.7366 0075677 258.0683 256.4514 14.26728402992467
FENGYUN 1C DEB          
1 29846U 99025EQ  26061.67686715  .00000285  00000+0  15085-3 0  9991
2 29846  98.6425 106.5911 0085783  73.9096  51.8288 14.19149305989930
FENGYUN 1C DEB          
1 29847U 99025ER  26060.96065634 -.00000011  00000+0  20024-4 0  9992
2 29847  98.9085  60.1660 0084620 176.9842 238.2872 14.03065487978461
FENGYUN 1C DEB          
1 29848U 99025ES  26061.62979409  .00002637  00000+0  11505-2 0  9998
2 29848  98.2461 287.9582 0117232  61.0127   0.3648 14.21041443982528
FENGYUN 1C DEB          
1 29849U 99025ET  26061.78517775  .00001897  00000+0  11649-2 0  9996
2 29849  99.0025 150.6037 0082807 180.3142 306.4219 14.05198733974944
FENGYUN 1C DEB          
1 29850U 99025EU  26061.71677021  .00002679  00000+0  17517-2 0  9991
2 29850  98.1234 344.4618 0106973  61.7563   2.9507 14.00147964971395
FENGYUN 1C DEB          
1 29851U 99025EV  26061.74140548  .00000368  00000+0  34696-3 0  9995
2 29851  99.5715 109.1443 0142359  16.9201 102.1870 13.83671700964732
FENGYUN 1C DEB          
1 29852U 99025EW  26061.56578550  .00003828  00000+0  21144-2 0  9991
2 29852  99.3691  79.2883 0132816 288.9361 198.3400 14.07693645971074
FENGYUN 1C DEB          
1 29853U 99025EX  26061.27320860  .00001326  00000+0  92993-3 0  9991
2 29853  98.4582 181.2129 0157623   2.1300 358.0500 13.94098750967772
